{
"type": "FeatureCollection",
"name": "waterways",
"crs": { "type": "name", "properties": { "name": "urn:ogc:def:crs:OGC:1.3:CRS84" } },
"features": [
{ "type": "Feature", "properties": { "element": "way", "id": 25460072, "waterway": "canal", "boat": null, "name": "Reddikuppam Canal", "wikidata": null, "intermittent": "no", "width": "7", "layer": null, "created_by": null, "name:en": null, "name:ta": null, "name:te": null, "name:ml": null, "tunnel": null, "wikipedia": null }, "geometry": { "type": "LineString", "coordinates": [ [ 80.2242551, 13.0269264 ], [ 80.2245087, 13.0268128 ], [ 80.2250865, 13.0265891 ], [ 80.2252297, 13.026194 ], [ 80.2255821, 13.026183 ], [ 80.2261395, 13.0262441 ], [ 80.2270433, 13.026216 ], [ 80.2278132, 13.0260769 ], [ 80.2281969, 13.0260653 ] ] } },
{ "type": "Feature", "properties": { "element": "way", "id": 27709553, "waterway": "drain", "boat": null, "name": "Raj Bhavan Canal", "wikidata": null, "intermittent": null, "width": null, "layer": "-1", "created_by": null, "name:en": null, "name:ta": null, "name:te": null, "name:ml": null, "tunnel": null, "wikipedia": null }, "geometry": { "type": "LineString", "coordinates": [ [ 80.2176754, 12.9954573 ], [ 80.2170965, 12.9951777 ] ] } },
{ "type": "Feature", "properties": { "element": "way", "id": 30037017, "waterway": "drain", "boat": null, "name": null, "wikidata": null, "intermittent": null, "width": null, "layer": null, "created_by": null, "name:en": null, "name:ta": null, "name:te": null, "name:ml": null, "tunnel": null, "wikipedia": null }, "geometry": { "type": "LineString", "coordinates": [ [ 80.2355812, 12.9897175 ], [ 80.2356148, 12.989941 ], [ 80.2355833, 12.9904221 ], [ 80.2357385, 12.9911863 ], [ 80.2359383, 12.9923779 ], [ 80.236078, 12.9927112 ], [ 80.2361845, 12.9927915 ], [ 80.2364274, 12.9929746 ], [ 80.2369112, 12.9931788 ], [ 80.2371853, 12.99341 ], [ 80.2372245, 12.9934942 ] ] } },
{ "type": "Feature", "properties": { "element": "way", "id": 32685679, "waterway": "drain", "boat": "no", "name": null, "wikidata": null, "intermittent": null, "width": null, "layer": null, "created_by": "Potlatch 0.10f", "name:en": null, "name:ta": null, "name:te": null, "name:ml": null, "tunnel": null, "wikipedia": null }, "geometry": { "type": "LineString", "coordinates": [ [ 80.2023586, 13.0274743 ], [ 80.2023966, 13.0279759 ] ] } },
{ "type": "Feature", "properties": { "element": "way", "id": 32742657, "waterway": "stream", "boat": "no", "name": null, "wikidata": null, "intermittent": null, "width": null, "layer": null, "created_by": null, "name:en": null, "name:ta": null, "name:te": null, "name:ml": null, "tunnel": null, "wikipedia": null }, "geometry": { "type": "LineString", "coordinates": [ [ 80.2059836, 13.0080034 ], [ 80.2057179, 13.0099701 ], [ 80.2060457, 13.0109421 ], [ 80.2063844, 13.0114055 ], [ 80.2071379, 13.012739 ], [ 80.207271, 13.0129156 ], [ 80.207431, 13.0128955 ], [ 80.2080461, 13.0142494 ], [ 80.2082409, 13.0145463 ], [ 80.2083868, 13.0147387 ], [ 80.2084126, 13.0150481 ], [ 80.2084469, 13.0152488 ], [ 80.2084469, 13.0155164 ], [ 80.2084466, 13.0156291 ], [ 80.2084469, 13.0157756 ], [ 80.2083924, 13.0162346 ], [ 80.2084481, 13.0164333 ], [ 80.2085977, 13.0166175 ], [ 80.208761, 13.0167587 ], [ 80.2090992, 13.0168878 ], [ 80.2092881, 13.0169508 ], [ 80.2094254, 13.0169966 ], [ 80.2097172, 13.0170551 ], [ 80.2100176, 13.0171136 ], [ 80.2101053, 13.0174038 ], [ 80.2102665, 13.0174649 ], [ 80.2103609, 13.017618 ], [ 80.2104038, 13.0176906 ], [ 80.2102751, 13.0181924 ], [ 80.2103008, 13.0183345 ], [ 80.2103695, 13.0183931 ], [ 80.2104725, 13.018368 ], [ 80.2106098, 13.0182676 ], [ 80.210936, 13.0182844 ], [ 80.2112021, 13.0182175 ], [ 80.2113737, 13.0181924 ], [ 80.2115626, 13.0182258 ], [ 80.2118029, 13.0183596 ], [ 80.2118379, 13.0185205 ], [ 80.211863, 13.0186356 ], [ 80.2120346, 13.0188614 ], [ 80.2121205, 13.0190035 ], [ 80.2121245, 13.0190129 ], [ 80.2121634, 13.0191039 ], [ 80.2123994, 13.0194407 ] ] } },
{ "type": "Feature", "properties": { "element": "way", "id": 102550210, "waterway": "drain", "boat": null, "name": null, "wikidata": null, "intermittent": null, "width": null, "layer": "-1", "created_by": null, "name:en": null, "name:ta": null, "name:te": null, "name:ml": null, "tunnel": null, "wikipedia": null }, "geometry": { "type": "LineString", "coordinates": [ [ 80.2103977, 12.9888797 ], [ 80.2120121, 12.988756 ], [ 80.2149296, 12.9880186 ], [ 80.2172517, 12.9873198 ], [ 80.2180981, 12.9870545 ] ] } },
{ "type": "Feature", "properties": { "element": "way", "id": 102550213, "waterway": "drain", "boat": null, "name": null, "wikidata": null, "intermittent": null, "width": null, "layer": "-1", "created_by": null, "name:en": null, "name:ta": null, "name:te": null, "name:ml": null, "tunnel": "yes", "wikipedia": null }, "geometry": { "type": "LineString", "coordinates": [ [ 80.2180981, 12.9870545 ], [ 80.2184063, 12.9869953 ] ] } },
{ "type": "Feature", "properties": { "element": "way", "id": 102550242, "waterway": "drain", "boat": null, "name": null, "wikidata": null, "intermittent": null, "width": null, "layer": "-1", "created_by": null, "name:en": null, "name:ta": null, "name:te": null, "name:ml": null, "tunnel": null, "wikipedia": null }, "geometry": { "type": "LineString", "coordinates": [ [ 80.2184063, 12.9869953 ], [ 80.2186568, 12.9869377 ], [ 80.2190116, 12.9868194 ], [ 80.2193803, 12.9867012 ], [ 80.2198398, 12.9864879 ], [ 80.220859, 12.9861691 ], [ 80.2222806, 12.9855523 ], [ 80.2225596, 12.9852282 ], [ 80.2225167, 12.9848727 ] ] } },
{ "type": "Feature", "properties": { "element": "way", "id": 102580554, "waterway": "drain", "boat": null, "name": "Raj Bhavan Canal", "wikidata": null, "intermittent": null, "width": null, "layer": "-1", "created_by": null, "name:en": null, "name:ta": null, "name:te": null, "name:ml": null, "tunnel": null, "wikipedia": null }, "geometry": { "type": "LineString", "coordinates": [ [ 80.2169341, 12.995015 ], [ 80.2166057, 12.9948664 ], [ 80.2164651, 12.9945265 ], [ 80.2159568, 12.9938105 ], [ 80.2148891, 12.9940552 ], [ 80.2144599, 12.9933527 ], [ 80.2140849, 12.99306 ], [ 80.2139039, 12.9927141 ], [ 80.2144135, 12.9924686 ], [ 80.2142957, 12.9920692 ], [ 80.2144673, 12.9919869 ], [ 80.2143842, 12.9917099 ], [ 80.214297, 12.9915191 ], [ 80.2142635, 12.9914877 ], [ 80.2141696, 12.9913315 ], [ 80.214126, 12.9913159 ], [ 80.2140261, 12.991344 ], [ 80.2139986, 12.9913329 ], [ 80.2139685, 12.9912682 ], [ 80.2139368, 12.9911804 ], [ 80.2143998, 12.9909524 ], [ 80.2147346, 12.9906262 ], [ 80.2153237, 12.9904213 ], [ 80.2151669, 12.9897027 ], [ 80.2150516, 12.9890484 ] ] } },
{ "type": "Feature", "properties": { "element": "way", "id": 102580558, "waterway": "drain", "boat": null, "name": "Raj Bhavan Canal", "wikidata": null, "intermittent": null, "width": null, "layer": "-1", "created_by": null, "name:en": null, "name:ta": null, "name:te": null, "name:ml": null, "tunnel": "yes", "wikipedia": null }, "geometry": { "type": "LineString", "coordinates": [ [ 80.2150516, 12.9890484 ], [ 80.2150291, 12.9887956 ] ] } },
{ "type": "Feature", "properties": { "element": "way", "id": 102580561, "waterway": "drain", "boat": null, "name": "Raj Bhavan Canal", "wikidata": null, "intermittent": null, "width": null, "layer": "-1", "created_by": null, "name:en": null, "name:ta": null, "name:te": null, "name:ml": null, "tunnel": "yes", "wikipedia": null }, "geometry": { "type": "LineString", "coordinates": [ [ 80.2170965, 12.9951777 ], [ 80.2169341, 12.995015 ] ] } },
{ "type": "Feature", "properties": { "element": "way", "id": 102580579, "waterway": "drain", "boat": null, "name": "Raj Bhavan Canal", "wikidata": null, "intermittent": null, "width": null, "layer": "-1", "created_by": null, "name:en": null, "name:ta": null, "name:te": null, "name:ml": null, "tunnel": null, "wikipedia": null }, "geometry": { "type": "LineString", "coordinates": [ [ 80.2150291, 12.9887956 ], [ 80.2149296, 12.9880186 ] ] } },
{ "type": "Feature", "properties": { "element": "way", "id": 103716694, "waterway": "canal", "boat": null, "name": "drain path", "wikidata": null, "intermittent": null, "width": null, "layer": "-1", "created_by": null, "name:en": null, "name:ta": null, "name:te": null, "name:ml": null, "tunnel": "culvert", "wikipedia": null }, "geometry": { "type": "LineString", "coordinates": [ [ 80.2180981, 12.9870545 ], [ 80.2177916, 12.9858328 ], [ 80.2177584, 12.9856646 ], [ 80.2177423, 12.985385 ], [ 80.2177584, 12.9848962 ], [ 80.2177901, 12.98396 ], [ 80.2178365, 12.9825989 ], [ 80.2178825, 12.9818598 ], [ 80.2179014, 12.9817607 ], [ 80.2179817, 12.9813395 ], [ 80.2181178, 12.9809225 ] ] } },
{ "type": "Feature", "properties": { "element": "way", "id": 103719115, "waterway": "drain", "boat": null, "name": null, "wikidata": null, "intermittent": null, "width": null, "layer": null, "created_by": null, "name:en": null, "name:ta": null, "name:te": null, "name:ml": null, "tunnel": null, "wikipedia": null }, "geometry": { "type": "LineString", "coordinates": [ [ 80.204825696622436, 12.988395008053704 ], [ 80.2049776, 12.98838 ] ] } },
{ "type": "Feature", "properties": { "element": "way", "id": 111749073, "waterway": "stream", "boat": null, "name": "Adyar Creek", "wikidata": null, "intermittent": null, "width": null, "layer": null, "created_by": null, "name:en": null, "name:ta": null, "name:te": null, "name:ml": null, "tunnel": null, "wikipedia": null }, "geometry": { "type": "LineString", "coordinates": [ [ 80.2631657, 13.0211257 ], [ 80.2634273, 13.0210512 ], [ 80.2638283, 13.0210429 ], [ 80.2641073, 13.0210534 ], [ 80.2643957, 13.0210149 ], [ 80.2646115, 13.0210011 ], [ 80.2648368, 13.0211475 ], [ 80.2650407, 13.0213565 ], [ 80.2652231, 13.0216492 ], [ 80.2652767, 13.0219523 ], [ 80.2653304, 13.02213 ], [ 80.265502, 13.0224227 ], [ 80.2658024, 13.0227468 ], [ 80.2659788, 13.0228604 ], [ 80.2661458, 13.0229035 ], [ 80.2664783, 13.0228721 ], [ 80.2666607, 13.0229975 ], [ 80.267004, 13.0233629 ], [ 80.2675082, 13.0236764 ], [ 80.2676692, 13.0239378 ], [ 80.2681198, 13.0242723 ], [ 80.2689025, 13.0243872 ], [ 80.269632, 13.0243872 ], [ 80.2706298, 13.0241782 ], [ 80.2715418, 13.0238562 ], [ 80.2722928, 13.0235928 ], [ 80.2728543, 13.0229733 ], [ 80.2742454, 13.0227467 ], [ 80.2750715, 13.0221195 ], [ 80.2754685, 13.0215028 ], [ 80.2756831, 13.0207606 ], [ 80.2758215, 13.0204334 ], [ 80.2758556, 13.0201473 ], [ 80.2758333, 13.0199139 ], [ 80.2757153, 13.0191717 ], [ 80.2752402, 13.0173406 ], [ 80.2754074, 13.0167018 ], [ 80.2758566, 13.0154287 ], [ 80.2756647, 13.0148853 ], [ 80.2752217, 13.0143215 ], [ 80.275027, 13.0130658 ] ] } },
{ "type": "Feature", "properties": { "element": "way", "id": 178105900, "waterway": "river", "boat": "no", "name": "Adyar River", "wikidata": "Q2825422", "intermittent": null, "width": null, "layer": null, "created_by": null, "name:en": null, "name:ta": "அடையாறு நதி", "name:te": null, "name:ml": "അടയാർ നദി", "tunnel": null, "wikipedia": "en:Adyar River" }, "geometry": { "type": "MultiLineString", "coordinates": [ [ [ 80.201542830000051, 13.028453194135754 ], [ 80.208209611703552, 13.0267535163267 ] ], [ [ 80.209233003900408, 13.026143964204724 ], [ 80.210407788595646, 13.025204993596034 ] ], [ [ 80.211536191718267, 13.022744629032564 ], [ 80.2115618, 13.0218509 ], [ 80.2120176, 13.0202155 ], [ 80.2123994, 13.0194407 ], [ 80.2127164, 13.0191372 ], [ 80.2146189, 13.01794 ], [ 80.2193974, 13.0164637 ], [ 80.2225262, 13.0159116 ], [ 80.223314, 13.0159454 ], [ 80.2239156, 13.0162175 ], [ 80.2268443, 13.0186241 ], [ 80.227405, 13.0188594 ], [ 80.2284879, 13.0188259 ], [ 80.2288427, 13.0185997 ], [ 80.2297857, 13.0172684 ], [ 80.2304541, 13.0165829 ], [ 80.231527, 13.0155376 ], [ 80.2338874, 13.0155376 ], [ 80.2350461, 13.016123 ], [ 80.2361619, 13.0190498 ], [ 80.2371178, 13.0210774 ], [ 80.2384364, 13.0234401 ], [ 80.2396054, 13.0254921 ], [ 80.2403778, 13.0260984 ], [ 80.24098450513975, 13.026262809865131 ] ], [ [ 80.249001077623618, 13.019854575758002 ], [ 80.249115, 13.0196141 ], [ 80.2494138, 13.018594 ], [ 80.2505243, 13.0164956 ], [ 80.2510071, 13.015722 ], [ 80.2529061, 13.014938 ], [ 80.2560389, 13.0142899 ], [ 80.2585071, 13.0139994 ], [ 80.2606393, 13.0139688 ], [ 80.2643758, 13.0152057 ], [ 80.2667341, 13.0156529 ], [ 80.2669903, 13.0156736 ], [ 80.2671698, 13.015668 ], [ 80.2675647, 13.0156299 ], [ 80.2680125, 13.0155323 ], [ 80.2683212, 13.0154153 ], [ 80.269145, 13.0149175 ], [ 80.2695108, 13.0147157 ], [ 80.2703208, 13.0143412 ], [ 80.2708078, 13.0141536 ], [ 80.2713181, 13.013956 ], [ 80.2718457, 13.0137646 ], [ 80.2724541, 13.0135954 ], [ 80.2730533, 13.013453 ], [ 80.2735119, 13.0133562 ], [ 80.275027, 13.0130658 ], [ 80.2760632, 13.0128788 ], [ 80.276732288984732, 13.012752458484915 ] ] ] } },
{ "type": "Feature", "properties": { "element": "way", "id": 214162275, "waterway": "drain", "boat": null, "name": "Mambalam Drain", "wikidata": null, "intermittent": null, "width": null, "layer": "-1", "created_by": null, "name:en": null, "name:ta": null, "name:te": null, "name:ml": null, "tunnel": "yes", "wikipedia": null }, "geometry": { "type": "LineString", "coordinates": [ [ 80.230682461965785, 13.030464457399269 ], [ 80.2306314, 13.0304566 ] ] } },
{ "type": "Feature", "properties": { "element": "way", "id": 214162276, "waterway": "canal", "boat": null, "name": "Mambalam Canal", "wikidata": null, "intermittent": "no", "width": "10", "layer": null, "created_by": null, "name:en": null, "name:ta": null, "name:te": null, "name:ml": null, "tunnel": null, "wikipedia": null }, "geometry": { "type": "LineString", "coordinates": [ [ 80.2306314, 13.0304566 ], [ 80.2304213, 13.0303769 ], [ 80.2302919, 13.0303259 ], [ 80.2301918, 13.0302795 ], [ 80.2300981, 13.0301983 ], [ 80.229999, 13.0300975 ], [ 80.2296242, 13.0297077 ], [ 80.2293703, 13.0293923 ], [ 80.2292004, 13.0292167 ], [ 80.2288588, 13.0289802 ], [ 80.2286496, 13.0288882 ], [ 80.2283972, 13.0287814 ], [ 80.2281413, 13.0286918 ], [ 80.2279314, 13.028573 ], [ 80.2277635, 13.0284429 ], [ 80.2276638, 13.0281954 ], [ 80.2274652, 13.0273348 ], [ 80.2272099, 13.0271126 ], [ 80.2271678, 13.0269945 ], [ 80.2272069, 13.0268792 ], [ 80.2273175, 13.0267534 ], [ 80.2276157, 13.0266094 ], [ 80.2277477, 13.026541 ], [ 80.2281969, 13.0260653 ], [ 80.2285812, 13.0256695 ], [ 80.228891, 13.0253661 ], [ 80.2291217, 13.0251859 ], [ 80.2295013, 13.0247551 ], [ 80.2296738, 13.024603 ], [ 80.2298791, 13.0244857 ], [ 80.2301395, 13.0243104 ], [ 80.2314544, 13.0234538 ], [ 80.2332402, 13.0224835 ], [ 80.2333972, 13.0223814 ], [ 80.2337006, 13.0222078 ], [ 80.2337827, 13.0221188 ], [ 80.2340153, 13.0219608 ], [ 80.2341225, 13.0219338 ], [ 80.2342521, 13.0219306 ], [ 80.2346306, 13.0220626 ], [ 80.2349249, 13.0222432 ], [ 80.2350581, 13.0224425 ], [ 80.2355162, 13.0224906 ], [ 80.2356436, 13.0224765 ], [ 80.235813, 13.0223714 ], [ 80.2361934, 13.0222105 ], [ 80.2364489, 13.0221023 ], [ 80.2368198, 13.0218646 ], [ 80.2371178, 13.0210774 ] ] } },
{ "type": "Feature", "properties": { "element": "way", "id": 328358961, "waterway": "drain", "boat": null, "name": "Veerangal Canal", "wikidata": null, "intermittent": "yes", "width": null, "layer": "-1", "created_by": null, "name:en": null, "name:ta": null, "name:te": null, "name:ml": null, "tunnel": "culvert", "wikipedia": null }, "geometry": { "type": "MultiLineString", "coordinates": [ [ [ 80.1912645, 12.9753871 ], [ 80.1913298, 12.9754706 ], [ 80.1915422, 12.9754311 ], [ 80.191704, 12.975542 ], [ 80.1922224, 12.9759634 ], [ 80.1928141, 12.9765375 ], [ 80.1930695, 12.9769071 ], [ 80.1932996, 12.977289 ], [ 80.1934316, 12.9776157 ], [ 80.1934589, 12.9776832 ], [ 80.1936435, 12.9782574 ], [ 80.1938457, 12.9787649 ], [ 80.1940733, 12.9792208 ], [ 80.1943236, 12.9795781 ], [ 80.1943742, 12.9798392 ], [ 80.1944425, 12.9802409 ], [ 80.1945917, 12.9806425 ], [ 80.1946069, 12.9808076 ], [ 80.1945411, 12.980953 ], [ 80.1947009, 12.9810311 ], [ 80.1947622, 12.9811141 ], [ 80.1948117, 12.9812138 ], [ 80.1950734, 12.9812685 ], [ 80.1952112, 12.9812018 ], [ 80.195388464974016, 12.981216938331114 ] ], [ [ 80.195665953754101, 12.981058497288064 ], [ 80.1957414, 12.9809078 ], [ 80.1957773, 12.980738 ], [ 80.1959142, 12.9804954 ], [ 80.1960538, 12.9802049 ], [ 80.1962134, 12.9799629 ], [ 80.1963373, 12.9799054 ], [ 80.1966048, 12.9799054 ], [ 80.1968487, 12.9799801 ], [ 80.1971673, 12.9799725 ], [ 80.1975292, 12.9798996 ], [ 80.1976452, 12.9798172 ], [ 80.1979068, 12.9797118 ], [ 80.1984713, 12.9796869 ], [ 80.198902, 12.9795987 ], [ 80.1992502, 12.9796543 ], [ 80.1996553, 12.9796524 ], [ 80.1998559, 12.9795278 ], [ 80.2001057, 12.9792998 ], [ 80.2003653, 12.9792193 ], [ 80.201242877008653, 12.979109999760789 ] ] ] } },
{ "type": "Feature", "properties": { "element": "way", "id": 384187222, "waterway": "drain", "boat": null, "name": "Stormwater Drain", "wikidata": null, "intermittent": null, "width": null, "layer": "-1", "created_by": null, "name:en": null, "name:ta": null, "name:te": null, "name:ml": null, "tunnel": "no", "wikipedia": null }, "geometry": { "type": "LineString", "coordinates": [ [ 80.221378, 12.9712841 ], [ 80.2215844, 12.9712471 ], [ 80.2219642, 12.9711908 ], [ 80.222093, 12.9711698 ], [ 80.2222267, 12.9711489 ], [ 80.2223737, 12.9711232 ], [ 80.2225156, 12.9711055 ], [ 80.2225102, 12.9708588 ], [ 80.2225202, 12.9708576 ] ] } },
{ "type": "Feature", "properties": { "element": "way", "id": 384187223, "waterway": "drain", "boat": null, "name": null, "wikidata": null, "intermittent": null, "width": null, "layer": "-1", "created_by": null, "name:en": null, "name:ta": null, "name:te": null, "name:ml": null, "tunnel": null, "wikipedia": null }, "geometry": { "type": "LineString", "coordinates": [ [ 80.2219198, 12.9749497 ], [ 80.2221838, 12.9749348 ], [ 80.222443, 12.9750458 ], [ 80.2225536, 12.9748238 ], [ 80.2225984, 12.9748318 ], [ 80.2230422, 12.9748889 ], [ 80.2234086, 12.9749204 ] ] } },
{ "type": "Feature", "properties": { "element": "way", "id": 650607195, "waterway": "drain", "boat": null, "name": null, "wikidata": null, "intermittent": null, "width": null, "layer": "-1", "created_by": null, "name:en": null, "name:ta": null, "name:te": null, "name:ml": null, "tunnel": null, "wikipedia": null }, "geometry": { "type": "LineString", "coordinates": [ [ 80.2438747, 13.0240684 ], [ 80.2441628, 13.0243911 ], [ 80.2443461, 13.0245742 ], [ 80.244451905361089, 13.024662645499861 ] ] } },
{ "type": "Feature", "properties": { "element": "way", "id": 731551448, "waterway": "canal", "boat": "no", "name": "Buckingham Kaalvaai", "wikidata": "Q3536830", "intermittent": null, "width": "15", "layer": null, "created_by": null, "name:en": "Buckingham Canal", "name:ta": "பக்கிங்ஹாம் கால்வாய்", "name:te": "బకింగ్‌హాం కాలువ", "name:ml": "ബക്കിംഗ്ഹാം കൈത്തോട്", "tunnel": null, "wikipedia": "en:Buckingham Canal" }, "geometry": { "type": "LineString", "coordinates": [ [ 80.2479894, 13.0061275 ], [ 80.2479776, 13.0056313 ], [ 80.2479856, 13.005299 ], [ 80.2479658, 13.004558 ], [ 80.2479635, 13.004344 ], [ 80.2479723, 13.0036629 ], [ 80.2480712, 13.0031549 ], [ 80.2492698, 12.9983525 ], [ 80.249707, 12.9969825 ], [ 80.2502067, 12.9950319 ], [ 80.2501978, 12.9946535 ], [ 80.2510045, 12.9917066 ], [ 80.2513353, 12.9908874 ], [ 80.2519952, 12.98845 ], [ 80.2519653, 12.9880872 ], [ 80.2520739, 12.9875439 ], [ 80.2524287, 12.9860048 ], [ 80.253534864183408, 12.981724110153547 ] ] } },
{ "type": "Feature", "properties": { "element": "way", "id": 835785681, "waterway": "drain", "boat": null, "name": "Stormwater Drain", "wikidata": null, "intermittent": null, "width": null, "layer": "-1", "created_by": null, "name:en": null, "name:ta": null, "name:te": null, "name:ml": null, "tunnel": "culvert", "wikipedia": null }, "geometry": { "type": "LineString", "coordinates": [ [ 80.2225202, 12.9708576 ], [ 80.2225438, 12.9708561 ] ] } },
{ "type": "Feature", "properties": { "element": "way", "id": 835785682, "waterway": "drain", "boat": null, "name": "Stormwater Drain", "wikidata": null, "intermittent": null, "width": null, "layer": "-1", "created_by": null, "name:en": null, "name:ta": null, "name:te": null, "name:ml": null, "tunnel": "no", "wikipedia": null }, "geometry": { "type": "LineString", "coordinates": [ [ 80.2225438, 12.9708561 ], [ 80.222623, 12.9708513 ], [ 80.2229169, 12.9708786 ], [ 80.2230407, 12.9708915 ] ] } },
{ "type": "Feature", "properties": { "element": "way", "id": 1080320417, "waterway": "drain", "boat": null, "name": "Veerangal Canal", "wikidata": null, "intermittent": "yes", "width": null, "layer": null, "created_by": null, "name:en": null, "name:ta": null, "name:te": null, "name:ml": null, "tunnel": null, "wikipedia": null }, "geometry": { "type": "LineString", "coordinates": [ [ 80.205453435838919, 12.977540803817144 ], [ 80.2054631, 12.977527 ], [ 80.205819, 12.9772354 ], [ 80.2063419, 12.9768825 ], [ 80.2070726, 12.9763116 ], [ 80.2081498, 12.9754676 ], [ 80.2085466, 12.9752067 ], [ 80.2095072, 12.9744302 ], [ 80.2097561, 12.9742798 ], [ 80.2099765, 12.9740619 ], [ 80.2105277, 12.9736015 ], [ 80.2110758, 12.9732117 ], [ 80.2114317, 12.9728864 ], [ 80.2117949, 12.9726104 ], [ 80.2125609, 12.9719775 ], [ 80.2130773, 12.971556 ], [ 80.2135766, 12.9710939 ], [ 80.2141781, 12.9705691 ], [ 80.2150005, 12.9698734 ], [ 80.2156774, 12.969323 ], [ 80.2165321, 12.9687421 ], [ 80.2175719, 12.968316 ], [ 80.217342759145026, 12.967863238051226 ] ] } },
{ "type": "Feature", "properties": { "element": "way", "id": 1080322573, "waterway": "drain", "boat": null, "name": null, "wikidata": null, "intermittent": null, "width": null, "layer": null, "created_by": null, "name:en": null, "name:ta": null, "name:te": null, "name:ml": null, "tunnel": null, "wikipedia": null }, "geometry": { "type": "LineString", "coordinates": [ [ 80.195201975893596, 12.981323420201873 ], [ 80.1951764, 12.9812618 ], [ 80.1952112, 12.9812018 ] ] } },
{ "type": "Feature", "properties": { "element": "way", "id": 1105956376, "waterway": "canal", "boat": null, "name": "drain path", "wikidata": null, "intermittent": null, "width": null, "layer": "-1", "created_by": null, "name:en": null, "name:ta": null, "name:te": null, "name:ml": null, "tunnel": "culvert", "wikipedia": null }, "geometry": { "type": "LineString", "coordinates": [ [ 80.2189656, 12.9715302 ], [ 80.2185218, 12.9705957 ], [ 80.2179664, 12.9692704 ], [ 80.2175719, 12.968316 ] ] } },
{ "type": "Feature", "properties": { "element": "way", "id": 1229272623, "waterway": "drain", "boat": null, "name": null, "wikidata": null, "intermittent": null, "width": null, "layer": "-1", "created_by": null, "name:en": null, "name:ta": null, "name:te": null, "name:ml": null, "tunnel": null, "wikipedia": null }, "geometry": { "type": "LineString", "coordinates": [ [ 80.240455484324102, 13.026432978610393 ], [ 80.2403778, 13.0260984 ] ] } },
{ "type": "Feature", "properties": { "element": "way", "id": 1232632860, "waterway": "drain", "boat": null, "name": "Veerangal Canal", "wikidata": null, "intermittent": "yes", "width": null, "layer": null, "created_by": null, "name:en": null, "name:ta": null, "name:te": null, "name:ml": null, "tunnel": null, "wikipedia": null }, "geometry": { "type": "LineString", "coordinates": [ [ 80.1911155, 12.9749956 ], [ 80.191204, 12.9753098 ], [ 80.1912327, 12.9753465 ] ] } },
{ "type": "Feature", "properties": { "element": "way", "id": 1232632861, "waterway": "drain", "boat": null, "name": "Veerangal Canal", "wikidata": null, "intermittent": "yes", "width": null, "layer": "-1", "created_by": null, "name:en": null, "name:ta": null, "name:te": null, "name:ml": null, "tunnel": "culvert", "wikipedia": null }, "geometry": { "type": "LineString", "coordinates": [ [ 80.1912327, 12.9753465 ], [ 80.1912645, 12.9753871 ] ] } },
{ "type": "Feature", "properties": { "element": "way", "id": 1458961208, "waterway": "drain", "boat": null, "name": null, "wikidata": null, "intermittent": null, "width": null, "layer": null, "created_by": null, "name:en": null, "name:ta": null, "name:te": null, "name:ml": null, "tunnel": null, "wikipedia": null }, "geometry": { "type": "LineString", "coordinates": [ [ 80.2355298, 12.988411 ], [ 80.2355601, 12.9896371 ] ] } },
{ "type": "Feature", "properties": { "element": "way", "id": 1458961209, "waterway": "drain", "boat": null, "name": null, "wikidata": null, "intermittent": null, "width": null, "layer": "-1", "created_by": null, "name:en": null, "name:ta": null, "name:te": null, "name:ml": null, "tunnel": "culvert", "wikipedia": null }, "geometry": { "type": "LineString", "coordinates": [ [ 80.2355601, 12.9896371 ], [ 80.2355812, 12.9897175 ] ] } },
{ "type": "Feature", "properties": { "element": "way", "id": 1459226722, "waterway": "stream", "boat": null, "name": null, "wikidata": null, "intermittent": "yes", "width": null, "layer": null, "created_by": null, "name:en": null, "name:ta": null, "name:te": null, "name:ml": null, "tunnel": null, "wikipedia": null }, "geometry": { "type": "LineString", "coordinates": [ [ 80.2430008, 13.0062794 ], [ 80.2428216, 13.0055646 ], [ 80.242592, 13.0051663 ], [ 80.242256, 13.0047379 ], [ 80.2420068, 13.0041896 ], [ 80.2420796, 13.0036276 ], [ 80.2422224, 13.0032293 ], [ 80.2424002, 13.0028736 ], [ 80.2426896, 13.0022798 ], [ 80.2427384, 13.0019532 ], [ 80.2429456, 13.0008814 ], [ 80.2430734, 13.0002979 ] ] } },
{ "type": "Feature", "properties": { "element": "way", "id": 1459226728, "waterway": "canal", "boat": null, "name": null, "wikidata": null, "intermittent": null, "width": null, "layer": null, "created_by": null, "name:en": null, "name:ta": null, "name:te": null, "name:ml": null, "tunnel": null, "wikipedia": null }, "geometry": { "type": "LineString", "coordinates": [ [ 80.2451696, 12.9900427 ], [ 80.2449429, 12.9899216 ], [ 80.2429149, 12.9897354 ], [ 80.2427241, 12.9897829 ], [ 80.2416682, 12.9896971 ], [ 80.2416425, 12.9896996 ] ] } },
{ "type": "Feature", "properties": { "element": "way", "id": 1459226731, "waterway": "canal", "boat": null, "name": null, "wikidata": null, "intermittent": null, "width": null, "layer": null, "created_by": null, "name:en": null, "name:ta": null, "name:te": null, "name:ml": null, "tunnel": null, "wikipedia": null }, "geometry": { "type": "LineString", "coordinates": [ [ 80.2415559, 12.9897102 ], [ 80.2413335, 12.9897292 ], [ 80.2408395, 12.989854 ], [ 80.2403124, 12.9899165 ] ] } },
{ "type": "Feature", "properties": { "element": "way", "id": 1459226732, "waterway": "canal", "boat": null, "name": null, "wikidata": null, "intermittent": null, "width": null, "layer": "-1", "created_by": null, "name:en": null, "name:ta": null, "name:te": null, "name:ml": null, "tunnel": "culvert", "wikipedia": null }, "geometry": { "type": "LineString", "coordinates": [ [ 80.2416425, 12.9896996 ], [ 80.2415559, 12.9897102 ] ] } },
{ "type": "Feature", "properties": { "element": "way", "id": 1492152598, "waterway": "canal", "boat": "no", "name": "Buckingham Kaalvaai", "wikidata": "Q3536830", "intermittent": null, "width": "15", "layer": null, "created_by": null, "name:en": "Buckingham Canal", "name:ta": "பக்கிங்ஹாம் கால்வாய்", "name:te": "బకింగ్‌హాం కాలువ", "name:ml": "ബക്കിംഗ്ഹാം കൈത്തോട്", "tunnel": null, "wikipedia": "en:Buckingham Canal" }, "geometry": { "type": "MultiLineString", "coordinates": [ [ [ 80.259458409704379, 13.025551531860744 ], [ 80.2593767, 13.0254876 ], [ 80.2586229, 13.0249566 ], [ 80.2578222, 13.0245247 ], [ 80.257157, 13.024234 ], [ 80.2563909, 13.0237073 ], [ 80.2554525, 13.0232928 ], [ 80.2542334, 13.0229897 ], [ 80.2534033, 13.0225853 ], [ 80.2532134, 13.0224346 ], [ 80.2526362, 13.0219115 ], [ 80.2523504, 13.0214867 ], [ 80.2521057, 13.0210934 ], [ 80.2515907, 13.0202503 ], [ 80.2511658, 13.0196901 ], [ 80.250944396231588, 13.019568293865253 ] ], [ [ 80.249766270901702, 13.0187787461151 ], [ 80.2494138, 13.018594 ], [ 80.2486874, 13.018374 ], [ 80.2485269, 13.0182544 ], [ 80.2484963, 13.017981 ], [ 80.2483383, 13.0153412 ], [ 80.2482621, 13.0144466 ], [ 80.248059, 13.0125203 ], [ 80.2480993, 13.0120094 ], [ 80.2482199, 13.0117443 ], [ 80.2480142, 13.0071749 ], [ 80.2479917, 13.0062266 ] ] ] } },
{ "type": "Feature", "properties": { "element": "way", "id": 1492152599, "waterway": "canal", "boat": "no", "name": "Buckingham Kaalvaai", "wikidata": "Q3536830", "intermittent": null, "width": "15", "layer": "-1", "created_by": null, "name:en": "Buckingham Canal", "name:ta": "பக்கிங்ஹாம் கால்வாய்", "name:te": "బకింగ్‌హాం కాలువ", "name:ml": "ബക്കിംഗ്ഹാം കൈത്തോട്", "tunnel": "culvert", "wikipedia": "en:Buckingham Canal" }, "geometry": { "type": "LineString", "coordinates": [ [ 80.2479917, 13.0062266 ], [ 80.2479894, 13.0061275 ] ] } }
]
}
