{
"type": "FeatureCollection",
"name": "study_wards",
"crs": { "type": "name", "properties": { "name": "urn:ogc:def:crs:OGC:1.3:CRS84" } },
"features": [
{ "type": "Feature", "properties": { "Zone_No": "XIII", "Ward_No": 174, "Zone_Name": "ADYAR", "AREA": 0.000695, "PERIMETER": 0.121556 }, "geometry": { "type": "Polygon", "coordinates": [ [ [ 80.240428032491863, 13.006844039216102 ], [ 80.24129876571611, 13.006593606214853 ], [ 80.243516809655631, 13.00647575199929 ], [ 80.242831503968944, 13.004238715957364 ], [ 80.24382304777491, 13.004192208821019 ], [ 80.243558603971479, 13.001537428093267 ], [ 80.243541859441933, 13.000434026880976 ], [ 80.243523781051223, 12.999488231750801 ], [ 80.243322242517351, 12.99864639687965 ], [ 80.243147897091802, 12.997673382244304 ], [ 80.24314784544157, 12.99544584373754 ], [ 80.241271971079101, 12.99578812339184 ], [ 80.241253524584337, 12.995197755604542 ], [ 80.241398570728279, 12.994679212909343 ], [ 80.241525769805108, 12.993499475402059 ], [ 80.241370669150882, 12.992436071963242 ], [ 80.240571124729129, 12.987189739213344 ], [ 80.240646045510942, 12.986647159766683 ], [ 80.241001467741356, 12.986200727325825 ], [ 80.240981622582467, 12.985775622596286 ], [ 80.240702919416591, 12.985466994516218 ], [ 80.239633191917576, 12.984445248432797 ], [ 80.238907297717745, 12.984346392386858 ], [ 80.237972625904888, 12.983986554020769 ], [ 80.237317656303929, 12.983817298693383 ], [ 80.23691774833604, 12.983980137873065 ], [ 80.236588365348368, 12.984119795787644 ], [ 80.236284821794669, 12.983976288184444 ], [ 80.236006718056089, 12.98359683307975 ], [ 80.235592759394905, 12.982649906290636 ], [ 80.235076841663115, 12.982670378515545 ], [ 80.234608259131335, 12.9828297571816 ], [ 80.23242426123069, 12.983182569325797 ], [ 80.231573551733263, 12.983482475011568 ], [ 80.232187502140874, 12.984909915990361 ], [ 80.232559130360002, 12.986335883077553 ], [ 80.232617129068871, 12.986641315855984 ], [ 80.23253532227082, 12.986762850281085 ], [ 80.232413472686446, 12.986843463816852 ], [ 80.231766075326419, 12.986981896782531 ], [ 80.230169754851417, 12.987094219386536 ], [ 80.22701767305557, 12.98729877262255 ], [ 80.22402765575265, 12.98744329559198 ], [ 80.223241829866325, 12.98723512924132 ], [ 80.222818282404518, 12.987171537070353 ], [ 80.222392841594484, 12.987331658723347 ], [ 80.22220937872774, 12.987533929508499 ], [ 80.222207829624793, 12.987716968091796 ], [ 80.222104968698218, 12.98794006779452 ], [ 80.221516602782359, 12.988261907816279 ], [ 80.22109081772706, 12.988462704710111 ], [ 80.22074477399957, 12.988786018623243 ], [ 80.220543010965244, 12.988764452760041 ], [ 80.220423054728911, 12.988621352471672 ], [ 80.220325357479012, 12.988234323563285 ], [ 80.220144132205519, 12.988172205283751 ], [ 80.219921142920086, 12.988272542318501 ], [ 80.21927340131495, 12.988451650524787 ], [ 80.218848476872623, 12.988550759316722 ], [ 80.218667251599115, 12.988488641037128 ], [ 80.218589059374736, 12.98818308543448 ], [ 80.218433535538594, 12.987470286127101 ], [ 80.217462009192289, 12.987728779626513 ], [ 80.216063148687724, 12.988371108602989 ], [ 80.215473922159106, 12.98879463672665 ], [ 80.215309103704911, 12.989180068919374 ], [ 80.215598753003533, 12.990747908052121 ], [ 80.216215285249348, 12.991870284725222 ], [ 80.21619319838571, 12.99209387572502 ], [ 80.215543563432476, 12.992496697755437 ], [ 80.215198724562654, 12.99267764832595 ], [ 80.215176637698846, 12.992901239325741 ], [ 80.215672180973058, 12.994002541432931 ], [ 80.214799040366955, 12.994566713359108 ], [ 80.214454373619674, 12.994727326309397 ], [ 80.214493211547932, 12.99491061054125 ], [ 80.214593490636162, 12.994992575144103 ], [ 80.214652522080343, 12.995175982200243 ], [ 80.214488908484043, 12.995419051050458 ], [ 80.213882070278075, 12.995537392044307 ], [ 80.213112995456299, 12.995736100925305 ], [ 80.212729318658262, 12.995733767263959 ], [ 80.212529448971807, 12.995488487576793 ], [ 80.212429169883592, 12.995406522973761 ], [ 80.212186847695421, 12.995405049082388 ], [ 80.210506827074269, 12.995862619935687 ], [ 80.210304203427143, 12.995942742174266 ], [ 80.210322331472156, 12.996186916443076 ], [ 80.210401900677056, 12.996329771082708 ], [ 80.2103204381241, 12.996410630267038 ], [ 80.210037212536605, 12.996469923588268 ], [ 80.208399472294971, 12.996704026266004 ], [ 80.207080042500408, 12.996764799418562 ], [ 80.207909798160131, 13.000513030945573 ], [ 80.208312211791679, 13.001382134433657 ], [ 80.209802783726715, 13.004403861488615 ], [ 80.211745300840548, 13.007283894794195 ], [ 80.213534920292958, 13.008863014326289 ], [ 80.21520475864466, 13.010069981365694 ], [ 80.221223728617503, 13.012229734592113 ], [ 80.223746439598912, 13.011107894699336 ], [ 80.224951765758078, 13.010711709049652 ], [ 80.228206633147224, 13.009154122164412 ], [ 80.231708690292507, 13.008515122595902 ], [ 80.235211678772174, 13.007766078633601 ], [ 80.235399995434747, 13.007033556988848 ], [ 80.237410631553345, 13.006165385940443 ], [ 80.238650516597588, 13.005989510606918 ], [ 80.23912306545931, 13.006102434878521 ], [ 80.239338800777816, 13.006433897233798 ], [ 80.239518114542818, 13.006765138059754 ], [ 80.240428032491863, 13.006844039216102 ] ] ] } },
{ "type": "Feature", "properties": { "Zone_No": "XIV", "Ward_No": 169, "Zone_Name": "PERUNGUDI", "AREA": 0.000224, "PERIMETER": 0.089436 }, "geometry": { "type": "Polygon", "coordinates": [ [ [ 80.190760939221519, 12.9745296929927 ], [ 80.191167320204997, 12.974547381682664 ], [ 80.191567742346621, 12.974469294387317 ], [ 80.192046238638241, 12.974613119689094 ], [ 80.192486294124024, 12.974575534861968 ], [ 80.192328442198445, 12.974333006325791 ], [ 80.192033747557389, 12.973727292827054 ], [ 80.192314247491709, 12.973648476121374 ], [ 80.192735678843292, 12.973449732399962 ], [ 80.192954854773333, 12.97353158831535 ], [ 80.193010556812467, 12.974035194664483 ], [ 80.193250230864834, 12.974056783150973 ], [ 80.193316154658973, 12.973352609554443 ], [ 80.193576837921213, 12.973253541614712 ], [ 80.193835476832547, 12.973396029663986 ], [ 80.194534341592217, 12.973480803220751 ], [ 80.195353810009649, 12.973485787524675 ], [ 80.195812148904068, 12.973649620923668 ], [ 80.197210730236264, 12.973718519708193 ], [ 80.197367900711512, 12.974041566907481 ], [ 80.197565045256056, 12.974364857243541 ], [ 80.197460510293382, 12.974907750377234 ], [ 80.197456932679131, 12.975330473358198 ], [ 80.197514849431855, 12.975572394052428 ], [ 80.197893410550662, 12.975715611512257 ], [ 80.20086721963726, 12.976236966846029 ], [ 80.201059764391871, 12.977103758157902 ], [ 80.201296031192484, 12.977527939959579 ], [ 80.201329872208717, 12.978252851063663 ], [ 80.201329190758415, 12.978333369726837 ], [ 80.201400462130934, 12.978497005649695 ], [ 80.201504022576856, 12.97830935224594 ], [ 80.201828366748316, 12.978140158392264 ], [ 80.202117128499111, 12.978159031409056 ], [ 80.20227225188485, 12.97790322497697 ], [ 80.202222266873164, 12.977589547228614 ], [ 80.20221352677342, 12.977460795264982 ], [ 80.202372051570336, 12.977313260851147 ], [ 80.203524085148956, 12.977082670146366 ], [ 80.204321846643211, 12.976899424170197 ], [ 80.204538509158098, 12.976851242450364 ], [ 80.204647552555656, 12.976743006704687 ], [ 80.204679302412245, 12.97647590230453 ], [ 80.204720295055665, 12.976278153477939 ], [ 80.204828416860209, 12.976278811113941 ], [ 80.205081882959732, 12.97652785048494 ], [ 80.205802488409049, 12.97849241524 ], [ 80.205918763844949, 12.978691120628103 ], [ 80.206016972613568, 12.978701617877418 ], [ 80.206313358323527, 12.978525222259945 ], [ 80.20647112908982, 12.978466782431163 ], [ 80.206627810700894, 12.978537034781093 ], [ 80.207404621274563, 12.97962742176693 ], [ 80.207193632385085, 12.978615297100358 ], [ 80.207320049331628, 12.978203372746028 ], [ 80.207607920687906, 12.978081315703749 ], [ 80.208264565232497, 12.977961501673487 ], [ 80.208962184575924, 12.977841936866628 ], [ 80.209250055932216, 12.977719879824065 ], [ 80.209252849972529, 12.977389742204132 ], [ 80.209379266919086, 12.976977817850086 ], [ 80.209586236442874, 12.976731460752649 ], [ 80.209998079960215, 12.976486349773666 ], [ 80.209959549946717, 12.976197230132632 ], [ 80.209592872288525, 12.975947383905176 ], [ 80.209308493482766, 12.975656768922686 ], [ 80.209393237120523, 12.975327129749902 ], [ 80.209681806986666, 12.975122538302495 ], [ 80.210093301249188, 12.974918694525758 ], [ 80.210707923229947, 12.97492243287941 ], [ 80.210954470532528, 12.974841393815746 ], [ 80.211079839713847, 12.97455327106919 ], [ 80.211208002935592, 12.973935010702361 ], [ 80.211258058365217, 12.972862312660778 ], [ 80.212088031990845, 12.971629281057247 ], [ 80.214975826183505, 12.969335763367676 ], [ 80.215935365876973, 12.968553260374847 ], [ 80.213713737980044, 12.962916626714263 ], [ 80.211389432922246, 12.963233365668804 ], [ 80.21131999642364, 12.963674111624611 ], [ 80.211426887901538, 12.963983579583028 ], [ 80.211443935303024, 12.964557202053379 ], [ 80.21004096522519, 12.964703077583843 ], [ 80.20850602917983, 12.964914325693259 ], [ 80.204074002167019, 12.96583588033041 ], [ 80.202408966918568, 12.965891928226528 ], [ 80.202124627405084, 12.965846081941139 ], [ 80.201734516472428, 12.965358424021998 ], [ 80.201493792261971, 12.965334901435313 ], [ 80.201551281466351, 12.966305821351835 ], [ 80.201569075573559, 12.966791214705331 ], [ 80.199551011018755, 12.96715393315502 ], [ 80.199244397162715, 12.967152068218416 ], [ 80.199070495980251, 12.96699660158543 ], [ 80.198939650071267, 12.966929630489215 ], [ 80.198741047752051, 12.967104889835452 ], [ 80.198409919435491, 12.967411693598608 ], [ 80.198212437175087, 12.967454609269277 ], [ 80.197951492063069, 12.967232437959765 ], [ 80.197865194839508, 12.967077504165809 ], [ 80.197602196286255, 12.967097962928074 ], [ 80.196680674629533, 12.96729088363157 ], [ 80.196575649916369, 12.966760842880674 ], [ 80.196375189911421, 12.964813051131678 ], [ 80.196126311235361, 12.964815423167538 ], [ 80.196122976699698, 12.965209424522197 ], [ 80.196119508782658, 12.965619185930954 ], [ 80.196291641011143, 12.965620232901555 ], [ 80.196257543232349, 12.965951003681267 ], [ 80.195865800096428, 12.966011664419282 ], [ 80.195863799375033, 12.966248065232161 ], [ 80.195973551292823, 12.96657159779439 ], [ 80.196055549402274, 12.967025992460362 ], [ 80.196075362993696, 12.967220639798393 ], [ 80.195988426145547, 12.967349795566582 ], [ 80.1954946669631, 12.967368406435879 ], [ 80.195408827612411, 12.967367884329834 ], [ 80.194399300661189, 12.967469814479095 ], [ 80.194418382587642, 12.967750913733216 ], [ 80.194460387681602, 12.96785923968149 ], [ 80.193688055791455, 12.968043164739473 ], [ 80.193823142709491, 12.968146686366557 ], [ 80.19390521813466, 12.968489518844102 ], [ 80.193950117730481, 12.969208691796451 ], [ 80.193864710633548, 12.969259522309358 ], [ 80.193557505823392, 12.969411703747674 ], [ 80.192281759013056, 12.969540877499288 ], [ 80.191973685071247, 12.969795753630654 ], [ 80.190492555632773, 12.970094844803153 ], [ 80.189264026103402, 12.970669338991989 ], [ 80.189142602019572, 12.970959583722108 ], [ 80.189445942172028, 12.973272178286434 ], [ 80.189561282333116, 12.973700796408485 ], [ 80.189645675443131, 12.973769776370961 ], [ 80.190051950184625, 12.973960530777108 ], [ 80.190643426231048, 12.974357811603689 ], [ 80.190760939221519, 12.9745296929927 ] ] ] } },
{ "type": "Feature", "properties": { "Zone_No": "XIV", "Ward_No": 168, "Zone_Name": "PERUNGUDI", "AREA": 6.9999999999999994e-05, "PERIMETER": 0.0377 }, "geometry": { "type": "Polygon", "coordinates": [ [ [ 80.201400462130934, 12.978497005649695 ], [ 80.201329190758415, 12.978333369726837 ], [ 80.201329872208717, 12.978252851063663 ], [ 80.201296031192484, 12.977527939959579 ], [ 80.201059764391871, 12.977103758157902 ], [ 80.20086721963726, 12.976236966846029 ], [ 80.197893410550662, 12.975715611512257 ], [ 80.197514849431855, 12.975572394052428 ], [ 80.197456932679131, 12.975330473358198 ], [ 80.197460510293382, 12.974907750377234 ], [ 80.197565045256056, 12.974364857243541 ], [ 80.197367900711512, 12.974041566907481 ], [ 80.197210730236264, 12.973718519708193 ], [ 80.195812148904068, 12.973649620923668 ], [ 80.195353810009649, 12.973485787524675 ], [ 80.194534341592217, 12.973480803220751 ], [ 80.193835476832547, 12.973396029663986 ], [ 80.193576837921213, 12.973253541614712 ], [ 80.193316154658973, 12.973352609554443 ], [ 80.193250230864834, 12.974056783150973 ], [ 80.193010556812467, 12.974035194664483 ], [ 80.192954854773333, 12.97353158831535 ], [ 80.192735678843292, 12.973449732399962 ], [ 80.192314247491709, 12.973648476121374 ], [ 80.192033747557389, 12.973727292827054 ], [ 80.192328442198445, 12.974333006325791 ], [ 80.192486294124024, 12.974575534861968 ], [ 80.192046238638241, 12.974613119689094 ], [ 80.191567742346621, 12.974469294387317 ], [ 80.191167320204997, 12.974547381682664 ], [ 80.190760939221519, 12.9745296929927 ], [ 80.190570523125615, 12.974939334731223 ], [ 80.190534506138945, 12.97517874894843 ], [ 80.190463196442039, 12.975571998471899 ], [ 80.190510558578239, 12.976000203126965 ], [ 80.190588722910022, 12.976805161723814 ], [ 80.190688227407449, 12.97709675022147 ], [ 80.19058466696157, 12.977284403625282 ], [ 80.190226333777645, 12.977453390745401 ], [ 80.189969677920331, 12.977657229630596 ], [ 80.189898947644622, 12.977982016025322 ], [ 80.189845982587457, 12.980223976759062 ], [ 80.189792246817888, 12.980548866520543 ], [ 80.189687382674336, 12.980890561963873 ], [ 80.189801129427238, 12.981507453690158 ], [ 80.189985461600415, 12.981816674803815 ], [ 80.190681077513716, 12.981957839098065 ], [ 80.191019953651363, 12.982079716908373 ], [ 80.191290272342798, 12.982269644380381 ], [ 80.191731405228609, 12.982357910826801 ], [ 80.192615843829643, 12.982277706986604 ], [ 80.193449443767079, 12.982180077263898 ], [ 80.194114257484827, 12.981944487616472 ], [ 80.195804970354772, 12.980979121339224 ], [ 80.19628574160987, 12.980400079013608 ], [ 80.196610375492085, 12.980196653595456 ], [ 80.197103940449452, 12.980114072320095 ], [ 80.19746169421235, 12.980013548328657 ], [ 80.197786183239273, 12.979827238692776 ], [ 80.19822847496728, 12.979778578881543 ], [ 80.198806722745488, 12.979730746004281 ], [ 80.199044935543412, 12.979697961574363 ], [ 80.199417945548788, 12.979802930335893 ], [ 80.199791969541465, 12.979788088622216 ], [ 80.200185595435698, 12.979465266195669 ], [ 80.200492655390406, 12.979330200539451 ], [ 80.201071482589597, 12.979213904533676 ], [ 80.201378977110224, 12.979027491530822 ], [ 80.201449562530811, 12.978719820918366 ], [ 80.201400462130934, 12.978497005649695 ] ] ] } },
{ "type": "Feature", "properties": { "Zone_No": "XIII", "Ward_No": 179, "Zone_Name": "ADYAR", "AREA": 0.000197, "PERIMETER": 0.064092 }, "geometry": { "type": "Polygon", "coordinates": [ [ [ 80.217628513641031, 12.967738154324746 ], [ 80.219192543174373, 12.971550614149237 ], [ 80.220049271439464, 12.973785040751954 ], [ 80.220716191514569, 12.975454884735788 ], [ 80.221271037736045, 12.975997190772755 ], [ 80.221246367520152, 12.978912168904431 ], [ 80.221121854902307, 12.979254367830663 ], [ 80.221153292040839, 12.98128779970958 ], [ 80.221848887731284, 12.982443383723279 ], [ 80.222013751935265, 12.98308130525027 ], [ 80.222758613659749, 12.984163698291372 ], [ 80.222973158523402, 12.984679437616615 ], [ 80.223238005984683, 12.98499950789644 ], [ 80.223260254905213, 12.985244611977485 ], [ 80.223208501118336, 12.985611750324594 ], [ 80.22303430784099, 12.986076131452574 ], [ 80.222988905673759, 12.987197154752151 ], [ 80.223241829866325, 12.98723512924132 ], [ 80.22402765575265, 12.98744329559198 ], [ 80.22701767305557, 12.98729877262255 ], [ 80.230169754851417, 12.987094219386536 ], [ 80.231766075326419, 12.986981896782531 ], [ 80.232413472686446, 12.986843463816852 ], [ 80.23253532227082, 12.986762850281085 ], [ 80.232617129068871, 12.986641315855984 ], [ 80.232559130360002, 12.986335883077553 ], [ 80.232187502140874, 12.984909915990361 ], [ 80.231573551733263, 12.983482475011568 ], [ 80.23242426123069, 12.983182569325797 ], [ 80.234608259131335, 12.9828297571816 ], [ 80.234256996550229, 12.98138357529824 ], [ 80.23409630903754, 12.981280904602151 ], [ 80.233710566768821, 12.981522622385157 ], [ 80.233204179773381, 12.98170259036158 ], [ 80.23306316940878, 12.981661055350775 ], [ 80.233186740218699, 12.98137706561133 ], [ 80.233303204434137, 12.979207432912158 ], [ 80.233143147044657, 12.978752496790257 ], [ 80.233034542105017, 12.977059793816867 ], [ 80.232915808769292, 12.976563839716235 ], [ 80.2326324777286, 12.97614942312625 ], [ 80.228889688883726, 12.972948919964601 ], [ 80.227143489015262, 12.971081179238169 ], [ 80.22542544762328, 12.969275513772137 ], [ 80.224450783829766, 12.968237852343956 ], [ 80.222776405162691, 12.967567358937446 ], [ 80.221303058683787, 12.967352050875897 ], [ 80.219582815647442, 12.967259049080663 ], [ 80.218269875813164, 12.967457409938708 ], [ 80.217628513641031, 12.967738154324746 ] ] ] } },
{ "type": "Feature", "properties": { "Zone_No": "XIII", "Ward_No": 182, "Zone_Name": "ADYAR", "AREA": 0.00015, "PERIMETER": 0.051111 }, "geometry": { "type": "Polygon", "coordinates": [ [ [ 80.268372565715438, 12.983079688889706 ], [ 80.26754358610404, 12.978714116767822 ], [ 80.266753427552615, 12.975242687286405 ], [ 80.266515262370902, 12.974333313489755 ], [ 80.266066635115237, 12.97408296881566 ], [ 80.263608845701867, 12.973985480995879 ], [ 80.260697539462299, 12.974215389337079 ], [ 80.259917970521244, 12.974334455696438 ], [ 80.25958842585635, 12.974538797920438 ], [ 80.259340132278723, 12.974826172996433 ], [ 80.259378662292193, 12.97511529263747 ], [ 80.259213366077176, 12.975279364553131 ], [ 80.258926542486208, 12.975277619988095 ], [ 80.258642862190356, 12.974904470600586 ], [ 80.258522382579443, 12.974614852512458 ], [ 80.258072009048448, 12.97457084385058 ], [ 80.257375437470287, 12.974566607049777 ], [ 80.256758370704063, 12.974851739113753 ], [ 80.256386104965131, 12.97526216812634 ], [ 80.255892311850317, 12.975506780658687 ], [ 80.255360687231914, 12.975379739144351 ], [ 80.254623140854918, 12.975375253119971 ], [ 80.253925870766622, 12.975453550724177 ], [ 80.25371890124265, 12.975699907821388 ], [ 80.253714011672159, 12.97627764865647 ], [ 80.254068814659277, 12.977930579768676 ], [ 80.254058337008189, 12.979168595843799 ], [ 80.253879070591736, 12.980983355859472 ], [ 80.253544985611143, 12.981724171715738 ], [ 80.254219668616642, 12.982072689502854 ], [ 80.254597350804801, 12.982652971991802 ], [ 80.255821826132561, 12.987717790971628 ], [ 80.259195090038133, 12.987521563901984 ], [ 80.259746873823545, 12.987308175567625 ], [ 80.259797548829809, 12.986971325706227 ], [ 80.259705370168717, 12.986561358795891 ], [ 80.259826962489328, 12.986321271160795 ], [ 80.260138211135157, 12.986274998847234 ], [ 80.261765371678493, 12.986140399505224 ], [ 80.261957677505436, 12.986021155577129 ], [ 80.261983830239856, 12.985756404723412 ], [ 80.261894504888275, 12.985009297082961 ], [ 80.262088033562108, 12.984745564270316 ], [ 80.262973346379255, 12.984678700902769 ], [ 80.264529385800472, 12.98447142081517 ], [ 80.266542788460185, 12.983905681771057 ], [ 80.268372565715438, 12.983079688889706 ] ] ] } },
{ "type": "Feature", "properties": { "Zone_No": "XIII", "Ward_No": 181, "Zone_Name": "ADYAR", "AREA": 0.000153, "PERIMETER": 0.054809 }, "geometry": { "type": "Polygon", "coordinates": [ [ [ 80.271771666076361, 12.996279378315421 ], [ 80.271700824502389, 12.995886807882416 ], [ 80.270587931759053, 12.991815010175779 ], [ 80.268602756239574, 12.984291918142162 ], [ 80.268372565715438, 12.983079688889706 ], [ 80.266542788460185, 12.983905681771057 ], [ 80.264529385800472, 12.98447142081517 ], [ 80.262973346379255, 12.984678700902769 ], [ 80.262088033562108, 12.984745564270316 ], [ 80.261894504888275, 12.985009297082961 ], [ 80.261983830239856, 12.985756404723412 ], [ 80.261957677505436, 12.986021155577129 ], [ 80.261765371678493, 12.986140399505224 ], [ 80.260138211135157, 12.986274998847234 ], [ 80.259826962489328, 12.986321271160795 ], [ 80.259705370168717, 12.986561358795891 ], [ 80.259797548829809, 12.986971325706227 ], [ 80.259746873823545, 12.987308175567625 ], [ 80.259195090038133, 12.987521563901984 ], [ 80.255821826132561, 12.987717790971628 ], [ 80.255912374330961, 12.988320409727754 ], [ 80.25591896151515, 12.990367481024403 ], [ 80.256062426606007, 12.990368353631091 ], [ 80.256082122824168, 12.993691888841337 ], [ 80.25591005930518, 12.994244744857076 ], [ 80.255911551293806, 12.996893853172299 ], [ 80.261152307074468, 12.996419992220789 ], [ 80.267973013124788, 12.995738996616074 ], [ 80.26948143465701, 12.995507344178709 ], [ 80.269935944585839, 12.995486025952538 ], [ 80.270342429010071, 12.995488498338132 ], [ 80.270579295608783, 12.995754848970757 ], [ 80.270816569823211, 12.995973036641685 ], [ 80.270982315300145, 12.996166706528724 ], [ 80.27083721974661, 12.996358485768017 ], [ 80.270955347334294, 12.996527783305288 ], [ 80.271218570475412, 12.996505301603493 ], [ 80.271771666076361, 12.996279378315421 ] ] ] } },
{ "type": "Feature", "properties": { "Zone_No": "XIII", "Ward_No": 176, "Zone_Name": "ADYAR", "AREA": 0.00025, "PERIMETER": 0.067185 }, "geometry": { "type": "Polygon", "coordinates": [ [ [ 80.276428946566128, 13.011360309396839 ], [ 80.275018288832484, 13.006977482815815 ], [ 80.2737710929146, 13.003038993540892 ], [ 80.273652359578875, 13.002543039440262 ], [ 80.273286380430605, 13.002210658807966 ], [ 80.272754755812358, 13.002083617293811 ], [ 80.271976234636625, 13.002078882045851 ], [ 80.271730735099354, 13.002036119502085 ], [ 80.271365454461105, 13.001621204464831 ], [ 80.270967231890097, 13.000256894546627 ], [ 80.270736750319472, 12.998439642295013 ], [ 80.270699966581134, 12.997944186641369 ], [ 80.270826383527677, 12.99753226228732 ], [ 80.271196553736232, 12.997369436489542 ], [ 80.271771597938638, 12.997207856809654 ], [ 80.271857389341477, 12.996754416029036 ], [ 80.271771666076361, 12.996279378315421 ], [ 80.271218570475412, 12.996505301603493 ], [ 80.270955347334294, 12.996527783305288 ], [ 80.27083721974661, 12.996358485768017 ], [ 80.270982315300145, 12.996166706528724 ], [ 80.270816569823211, 12.995973036641685 ], [ 80.270579295608783, 12.995754848970757 ], [ 80.270342429010071, 12.995488498338132 ], [ 80.269935944585839, 12.995486025952538 ], [ 80.26948143465701, 12.995507344178709 ], [ 80.267973013124788, 12.995738996616074 ], [ 80.261152307074468, 12.996419992220789 ], [ 80.255911551293806, 12.996893853172299 ], [ 80.25603664045434, 12.99867308838278 ], [ 80.257126561952461, 13.004746342202999 ], [ 80.257680439783357, 13.006729346459441 ], [ 80.258496848534151, 13.007660270633037 ], [ 80.258776759810203, 13.008300565209959 ], [ 80.258885192136518, 13.010472437721768 ], [ 80.259004703261425, 13.011335263905963 ], [ 80.26473920356095, 13.011785228050984 ], [ 80.272731011824874, 13.011482611495117 ], [ 80.276428946566128, 13.011360309396839 ] ] ] } },
{ "type": "Feature", "properties": { "Zone_No": "XIII", "Ward_No": 173, "Zone_Name": "ADYAR", "AREA": 0.00033, "PERIMETER": 0.077474 }, "geometry": { "type": "Polygon", "coordinates": [ [ [ 80.259004703261425, 13.011335263905963 ], [ 80.248190717025636, 13.015452267282676 ], [ 80.248315092013414, 13.015740390201191 ], [ 80.250065473618761, 13.0183580796489 ], [ 80.251732344378837, 13.020653242682858 ], [ 80.252727606262809, 13.022604654941004 ], [ 80.253674878848102, 13.022980961113339 ], [ 80.255907449686077, 13.023642993323287 ], [ 80.257615431625879, 13.024703258020102 ], [ 80.258744824984106, 13.025296822885203 ], [ 80.25935563982874, 13.025578446470382 ], [ 80.259816560163969, 13.025457735115813 ], [ 80.262522594748617, 13.024516954196542 ], [ 80.263351676445637, 13.024367603423109 ], [ 80.263997069443107, 13.02418625667878 ], [ 80.264456421851833, 13.024250808046139 ], [ 80.264486034904124, 13.024374503002386 ], [ 80.264849753807695, 13.024870774628718 ], [ 80.265118931311079, 13.025383930391206 ], [ 80.265706549898653, 13.026130062492211 ], [ 80.265849556610135, 13.026172185532497 ], [ 80.266178099875944, 13.026071050797396 ], [ 80.266404769798385, 13.02590741659902 ], [ 80.26642629655889, 13.025783787867219 ], [ 80.266162682693491, 13.025472785308967 ], [ 80.266328088962283, 13.025288151871969 ], [ 80.266714404694255, 13.025620527358319 ], [ 80.267784046821376, 13.02507011481568 ], [ 80.268459518044935, 13.025115476498343 ], [ 80.270199569173911, 13.025208566563478 ], [ 80.270938573322738, 13.025006795345689 ], [ 80.272212834933711, 13.024478253983959 ], [ 80.272768048121961, 13.024213485050254 ], [ 80.273896859190188, 13.023931578336105 ], [ 80.276201200594699, 13.022687370912115 ], [ 80.277208531711921, 13.022239712425648 ], [ 80.278114550994133, 13.022024066105498 ], [ 80.277799616218729, 13.019684717846706 ], [ 80.277281032684712, 13.015595900280816 ], [ 80.276515552593068, 13.011629388981342 ], [ 80.276428946566128, 13.011360309396839 ], [ 80.272731011824874, 13.011482611495117 ], [ 80.26473920356095, 13.011785228050984 ], [ 80.259004703261425, 13.011335263905963 ] ] ] } },
{ "type": "Feature", "properties": { "Zone_No": "XIII", "Ward_No": 170, "Zone_Name": "ADYAR", "AREA": 0.000308, "PERIMETER": 0.084901 }, "geometry": { "type": "Polygon", "coordinates": [ [ [ 80.225000794820602, 13.017294705250194 ], [ 80.225413238127032, 13.016437118920917 ], [ 80.225273760807852, 13.015702603514249 ], [ 80.225058956823588, 13.015261096765528 ], [ 80.222200591223313, 13.013006026632221 ], [ 80.221223728617503, 13.012229734592113 ], [ 80.21520475864466, 13.010069981365694 ], [ 80.21022015265676, 13.008347620786678 ], [ 80.208094352693664, 13.007756920325772 ], [ 80.204494158486412, 13.007074713410811 ], [ 80.204043435700541, 13.007071971951465 ], [ 80.203713541780402, 13.007317581377947 ], [ 80.203599809974634, 13.0110723983583 ], [ 80.20391852773362, 13.012147339411845 ], [ 80.203956359237026, 13.012518993458057 ], [ 80.203668138625659, 13.012682317702986 ], [ 80.20313406922223, 13.012844146606456 ], [ 80.202722225704676, 13.013089257585788 ], [ 80.202473233617056, 13.013459167066792 ], [ 80.202061390099487, 13.013704278046118 ], [ 80.199186867598158, 13.014429642040625 ], [ 80.198446876435881, 13.01471402643365 ], [ 80.198239557657033, 13.015001650733387 ], [ 80.198232223301275, 13.015868261985933 ], [ 80.198426619643712, 13.017107524178712 ], [ 80.200224146626056, 13.027435789088321 ], [ 80.200462661062602, 13.028303895682317 ], [ 80.200500492565979, 13.028675549728483 ], [ 80.206685028327428, 13.027356239810175 ], [ 80.207779684491555, 13.027009389918151 ], [ 80.209166365313138, 13.026184099050043 ], [ 80.210029241199507, 13.025664409307975 ], [ 80.210400799735353, 13.025234367325108 ], [ 80.210782288471819, 13.02363099477054 ], [ 80.21159952694957, 13.021258304859851 ], [ 80.211853155917581, 13.020271728810897 ], [ 80.2119464375333, 13.020117902634682 ], [ 80.212282895274001, 13.020212585222065 ], [ 80.213443730932141, 13.0207137052014 ], [ 80.214487159664984, 13.020596536873974 ], [ 80.217714124652758, 13.019689803151925 ], [ 80.219033739737171, 13.019543435980337 ], [ 80.219524795766816, 13.019484665341569 ], [ 80.219709791071594, 13.019362275711126 ], [ 80.219682007266584, 13.019022440912634 ], [ 80.219470273441516, 13.018681487263448 ], [ 80.219235459590834, 13.0174449106502 ], [ 80.219027384260599, 13.016671677316751 ], [ 80.219090791502708, 13.016425033304543 ], [ 80.219490133843323, 13.016334826120172 ], [ 80.223113305318819, 13.015708410657322 ], [ 80.223724904126854, 13.015897402881455 ], [ 80.22442743266059, 13.016210463012236 ], [ 80.224791935527335, 13.016614103277627 ], [ 80.225000794820602, 13.017294705250194 ] ] ] } },
{ "type": "Feature", "properties": { "Zone_No": "XIII", "Ward_No": 171, "Zone_Name": "ADYAR", "AREA": 0.000318, "PERIMETER": 0.096576 }, "geometry": { "type": "Polygon", "coordinates": [ [ [ 80.239315180982501, 13.026799777010609 ], [ 80.23833853266845, 13.02443993430612 ], [ 80.237946153321772, 13.022949988186602 ], [ 80.237720322580586, 13.021485047971668 ], [ 80.237794630241794, 13.021149599399774 ], [ 80.237963006276317, 13.020958680359026 ], [ 80.238417039240176, 13.020793491683087 ], [ 80.238513747232602, 13.0206261296271 ], [ 80.238257191206685, 13.019976760979631 ], [ 80.238401542528777, 13.019809688707475 ], [ 80.238881630681234, 13.019380736657126 ], [ 80.239050209763448, 13.019165825955968 ], [ 80.239004190814981, 13.018973602887398 ], [ 80.238814429687622, 13.018876477109147 ], [ 80.238792029356389, 13.018708390593233 ], [ 80.238958781009657, 13.018709404837223 ], [ 80.239411392639781, 13.018712157785199 ], [ 80.240102830060565, 13.018644384671282 ], [ 80.240891584616506, 13.018337274519826 ], [ 80.2412028906394, 13.018147224831246 ], [ 80.24118170859397, 13.017835188351826 ], [ 80.240835348195702, 13.016537465300821 ], [ 80.24057764307932, 13.014988653512468 ], [ 80.240453278034579, 13.008164793467518 ], [ 80.240428032491863, 13.006844039216102 ], [ 80.239518114542818, 13.006765138059754 ], [ 80.239338800777816, 13.006433897233798 ], [ 80.23912306545931, 13.006102434878521 ], [ 80.238650516597588, 13.005989510606918 ], [ 80.237410631553345, 13.006165385940443 ], [ 80.235399995434747, 13.007033556988848 ], [ 80.235211678772174, 13.007766078633601 ], [ 80.231708690292507, 13.008515122595902 ], [ 80.228206633147224, 13.009154122164412 ], [ 80.224951765758078, 13.010711709049652 ], [ 80.223746439598912, 13.011107894699336 ], [ 80.221223728617503, 13.012229734592113 ], [ 80.222200591223313, 13.013006026632221 ], [ 80.225058956823588, 13.015261096765528 ], [ 80.225273760807852, 13.015702603514249 ], [ 80.225413238127032, 13.016437118920917 ], [ 80.225000794820602, 13.017294705250194 ], [ 80.224591522279042, 13.018558243006211 ], [ 80.224402868479388, 13.019112912321134 ], [ 80.224338154631923, 13.019513941934738 ], [ 80.224670953877649, 13.020040904206313 ], [ 80.226277814569443, 13.022181308688539 ], [ 80.227917162845614, 13.024105759803863 ], [ 80.228709575821071, 13.024666396322436 ], [ 80.22895353590944, 13.02482227372492 ], [ 80.228706962610289, 13.024975167525559 ], [ 80.227846699934517, 13.025186086064389 ], [ 80.226005631804838, 13.025360160279204 ], [ 80.225025087671966, 13.025292438835045 ], [ 80.224442317953134, 13.025319772928103 ], [ 80.224287458343042, 13.025504103274283 ], [ 80.224284583811226, 13.025843751597831 ], [ 80.224148361768428, 13.027448615953325 ], [ 80.224018934073655, 13.028250675180864 ], [ 80.224139476851832, 13.028498438043655 ], [ 80.224292245893309, 13.028561124659859 ], [ 80.224752382265251, 13.028533044666341 ], [ 80.224935287001273, 13.028657671998227 ], [ 80.225055045816177, 13.028998066222011 ], [ 80.225366244187683, 13.030265986143474 ], [ 80.225486003002743, 13.030606380367312 ], [ 80.225700088717616, 13.030669439933575 ], [ 80.226191406068352, 13.030579792174546 ], [ 80.228339580207404, 13.030345828470201 ], [ 80.229014324936315, 13.030319053802497 ], [ 80.229443280329249, 13.03035254157437 ], [ 80.230024220800672, 13.03054134732333 ], [ 80.23032949756238, 13.030697597676049 ], [ 80.230574502935028, 13.030729966597402 ], [ 80.2306997494928, 13.030421941294742 ], [ 80.230994228319659, 13.028231344029068 ], [ 80.231225038583332, 13.026318267895801 ], [ 80.23141055653025, 13.026134124024509 ], [ 80.231838989281059, 13.026229366037239 ], [ 80.232664151161785, 13.026543172068312 ], [ 80.233029437991533, 13.026854180972824 ], [ 80.233149980769923, 13.027101943835733 ], [ 80.233729875956868, 13.027414258066049 ], [ 80.233878463861103, 13.027970978607021 ], [ 80.234151775680758, 13.028281428086181 ], [ 80.235429756943233, 13.029431713492484 ], [ 80.236706954242393, 13.030674630259664 ], [ 80.237041582735486, 13.03098545268889 ], [ 80.237530025554406, 13.031235453253183 ], [ 80.238262428461695, 13.031641331219957 ], [ 80.238936127906328, 13.031738065033444 ], [ 80.23936691254687, 13.031555412963245 ], [ 80.239677415730256, 13.031094120909719 ], [ 80.239772787914362, 13.030693277771235 ], [ 80.239687345931173, 13.029920790338078 ], [ 80.239342180824238, 13.027232243170038 ], [ 80.239315180982501, 13.026799777010609 ] ] ] } },
{ "type": "Feature", "properties": { "Zone_No": "XIII", "Ward_No": 175, "Zone_Name": "ADYAR", "AREA": 0.000194, "PERIMETER": 0.064551 }, "geometry": { "type": "Polygon", "coordinates": [ [ [ 80.25591896151515, 12.990367481024403 ], [ 80.255664629993973, 12.990298422101969 ], [ 80.255400798138766, 12.990172315616011 ], [ 80.254504853571945, 12.989615501197393 ], [ 80.254397394180373, 12.989792707254608 ], [ 80.254217793462743, 12.990147334186329 ], [ 80.254040902096037, 12.990181830201822 ], [ 80.253794729273636, 12.990055831124504 ], [ 80.253424190624386, 12.990018005441417 ], [ 80.253034788786451, 12.990122352756702 ], [ 80.25222232275955, 12.990135197010273 ], [ 80.251814960849828, 12.990275007018964 ], [ 80.251689691905881, 12.990469890718506 ], [ 80.250631149559638, 12.994518652624915 ], [ 80.249861899506442, 12.994446934355553 ], [ 80.249155315014448, 12.997335299324018 ], [ 80.248155714648547, 13.000908889448155 ], [ 80.247439950121233, 13.004881947082081 ], [ 80.247429852082377, 13.006075109014123 ], [ 80.247498286532448, 13.006473266374593 ], [ 80.247711239911766, 13.00676382790142 ], [ 80.247693797844633, 13.008824743965754 ], [ 80.248001085960226, 13.014937362896843 ], [ 80.248190717025636, 13.015452267282676 ], [ 80.259004703261425, 13.011335263905963 ], [ 80.258885192136518, 13.010472437721768 ], [ 80.258776759810203, 13.008300565209959 ], [ 80.258496848534151, 13.007660270633037 ], [ 80.257680439783357, 13.006729346459441 ], [ 80.257126561952461, 13.004746342202999 ], [ 80.25603664045434, 12.99867308838278 ], [ 80.255911551293806, 12.996893853172299 ], [ 80.25591005930518, 12.994244744857076 ], [ 80.256082122824168, 12.993691888841337 ], [ 80.256062426606007, 12.990368353631091 ], [ 80.25591896151515, 12.990367481024403 ] ] ] } },
{ "type": "Feature", "properties": { "Zone_No": "XIII", "Ward_No": 180, "Zone_Name": "ADYAR", "AREA": 0.000219, "PERIMETER": 0.076331 }, "geometry": { "type": "Polygon", "coordinates": [ [ [ 80.249702954456851, 12.995096667428317 ], [ 80.249861899506442, 12.994446934355553 ], [ 80.250631149559638, 12.994518652624915 ], [ 80.251689691905881, 12.990469890718506 ], [ 80.251814960849828, 12.990275007018964 ], [ 80.25222232275955, 12.990135197010273 ], [ 80.253034788786451, 12.990122352756702 ], [ 80.253424190624386, 12.990018005441417 ], [ 80.253794729273636, 12.990055831124504 ], [ 80.254040902096037, 12.990181830201822 ], [ 80.254217793462743, 12.990147334186329 ], [ 80.254397394180373, 12.989792707254608 ], [ 80.254504853571945, 12.989615501197393 ], [ 80.255400798138766, 12.990172315616011 ], [ 80.255664629993973, 12.990298422101969 ], [ 80.25591896151515, 12.990367481024403 ], [ 80.255912374330961, 12.988320409727754 ], [ 80.255821826132561, 12.987717790971628 ], [ 80.254597350804801, 12.982652971991802 ], [ 80.254219668616642, 12.982072689502854 ], [ 80.253544985611143, 12.981724171715738 ], [ 80.253053288026578, 12.981721181032816 ], [ 80.252686261113155, 12.981512602008182 ], [ 80.252695690999118, 12.980398387540545 ], [ 80.25261793246213, 12.979902682663493 ], [ 80.252413756978598, 12.979818902140774 ], [ 80.250933425398983, 12.980428938129224 ], [ 80.249169413523603, 12.980665824730524 ], [ 80.247816197400738, 12.980781401960151 ], [ 80.24508822999006, 12.98113623341454 ], [ 80.244185736653066, 12.981254552103515 ], [ 80.24373501386718, 12.981251810644169 ], [ 80.243285688101238, 12.981084000374857 ], [ 80.24320758030926, 12.980629562700113 ], [ 80.243299658302689, 12.979433312274844 ], [ 80.243343776396756, 12.979062156675838 ], [ 80.243141347188441, 12.978772040140328 ], [ 80.242690973657417, 12.978728031478509 ], [ 80.235432147692677, 12.979426728550598 ], [ 80.233875105341113, 12.97941725805468 ], [ 80.233303204434137, 12.979207432912158 ], [ 80.233186740218699, 12.98137706561133 ], [ 80.23306316940878, 12.981661055350775 ], [ 80.233204179773381, 12.98170259036158 ], [ 80.233710566768821, 12.981522622385157 ], [ 80.23409630903754, 12.981280904602151 ], [ 80.234256996550229, 12.98138357529824 ], [ 80.234608259131335, 12.9828297571816 ], [ 80.235076841663115, 12.982670378515545 ], [ 80.235592759394905, 12.982649906290636 ], [ 80.236006718056089, 12.98359683307975 ], [ 80.236284821794669, 12.983976288184444 ], [ 80.236588365348368, 12.984119795787644 ], [ 80.23691774833604, 12.983980137873065 ], [ 80.237317656303929, 12.983817298693383 ], [ 80.237972625904888, 12.983986554020769 ], [ 80.238907297717745, 12.984346392386858 ], [ 80.239633191917576, 12.984445248432797 ], [ 80.240702919416591, 12.985466994516218 ], [ 80.240981622582467, 12.985775622596286 ], [ 80.241001467741356, 12.986200727325825 ], [ 80.240646045510942, 12.986647159766683 ], [ 80.240571124729129, 12.987189739213344 ], [ 80.241370669150882, 12.992436071963242 ], [ 80.241525769805108, 12.993499475402059 ], [ 80.241398570728279, 12.994679212909343 ], [ 80.241253524584337, 12.995197755604542 ], [ 80.241271971079101, 12.99578812339184 ], [ 80.243150306116803, 12.995445394752785 ], [ 80.244701056449458, 12.995029842954219 ], [ 80.246179283710276, 12.994873562503303 ], [ 80.248921965389627, 12.994890244487332 ], [ 80.249437683312266, 12.994893381270652 ], [ 80.249702954456851, 12.995096667428317 ] ] ] } },
{ "type": "Feature", "properties": { "Zone_No": "XIII", "Ward_No": 172, "Zone_Name": "ADYAR", "AREA": 0.000212, "PERIMETER": 0.083434 }, "geometry": { "type": "Polygon", "coordinates": [ [ [ 80.24314784544157, 12.99544584373754 ], [ 80.243147897091802, 12.997673382244304 ], [ 80.243322242517351, 12.99864639687965 ], [ 80.243523781051223, 12.999488231750801 ], [ 80.243541859441933, 13.000434026880976 ], [ 80.243558603971479, 13.001537428093267 ], [ 80.24382304777491, 13.004192208821019 ], [ 80.242831503968944, 13.004238715957364 ], [ 80.243516809655631, 13.00647575199929 ], [ 80.24129876571611, 13.006593606214853 ], [ 80.240428032491863, 13.006844039216102 ], [ 80.240453278034579, 13.008164793467518 ], [ 80.24057764307932, 13.014988653512468 ], [ 80.240835348195702, 13.016537465300821 ], [ 80.24118170859397, 13.017835188351826 ], [ 80.2412028906394, 13.018147224831246 ], [ 80.240891584616506, 13.018337274519826 ], [ 80.240102830060565, 13.018644384671282 ], [ 80.239411392639781, 13.018712157785199 ], [ 80.238958781009657, 13.018709404837223 ], [ 80.238792029356389, 13.018708390593233 ], [ 80.238814429687622, 13.018876477109147 ], [ 80.239004190814981, 13.018973602887398 ], [ 80.239050209763448, 13.019165825955968 ], [ 80.238881630681234, 13.019380736657126 ], [ 80.238401542528777, 13.019809688707475 ], [ 80.238257191206685, 13.019976760979631 ], [ 80.238513747232602, 13.0206261296271 ], [ 80.238417039240176, 13.020793491683087 ], [ 80.237963006276317, 13.020958680359026 ], [ 80.237794630241794, 13.021149599399774 ], [ 80.237720322580586, 13.021485047971668 ], [ 80.237946153321772, 13.022949988186602 ], [ 80.23833853266845, 13.02443993430612 ], [ 80.239315180982501, 13.026799777010609 ], [ 80.242235823924432, 13.025860301417037 ], [ 80.24358871055621, 13.025405349517619 ], [ 80.244515255005794, 13.024608138643028 ], [ 80.246430967183883, 13.022859704242748 ], [ 80.247769317988556, 13.021586378122551 ], [ 80.250065473618761, 13.0183580796489 ], [ 80.248315092013414, 13.015740390201191 ], [ 80.248190717025636, 13.015452267282676 ], [ 80.248001085960226, 13.014937362896843 ], [ 80.247693797844633, 13.008824743965754 ], [ 80.247711239911766, 13.00676382790142 ], [ 80.247498286532448, 13.006473266374593 ], [ 80.247429852082377, 13.006075109014123 ], [ 80.247439950121233, 13.004881947082081 ], [ 80.248155714648547, 13.000908889448155 ], [ 80.249155315014448, 12.997335299324018 ], [ 80.249702954456851, 12.995096667428317 ], [ 80.249437683312266, 12.994893381270652 ], [ 80.248921965389627, 12.994890244487332 ], [ 80.246179283710276, 12.994873562503303 ], [ 80.244701056449458, 12.995029842954219 ], [ 80.243150306116803, 12.995445394752785 ], [ 80.24314784544157, 12.99544584373754 ] ] ] } },
{ "type": "Feature", "properties": { "Zone_No": "XIII", "Ward_No": 177, "Zone_Name": "ADYAR", "AREA": 0.000203, "PERIMETER": 0.062838 }, "geometry": { "type": "Polygon", "coordinates": [ [ [ 80.218433535538594, 12.987470286127101 ], [ 80.21835763332372, 12.986856083114873 ], [ 80.218051397712458, 12.985678370454762 ], [ 80.217981474802215, 12.982444357591669 ], [ 80.218160436272555, 12.981416577329123 ], [ 80.218831850770357, 12.979681382954642 ], [ 80.218834338523209, 12.97938743558001 ], [ 80.218616062030307, 12.979312617316744 ], [ 80.218032332880682, 12.979309066864486 ], [ 80.21698710675922, 12.979229218793858 ], [ 80.216137700897477, 12.979003580519972 ], [ 80.210916960421059, 12.977967454188478 ], [ 80.209250055932216, 12.977719879824065 ], [ 80.208962184575924, 12.977841936866628 ], [ 80.208264565232497, 12.977961501673487 ], [ 80.207607920687906, 12.978081315703749 ], [ 80.207320049331628, 12.978203372746028 ], [ 80.207193632385085, 12.978615297100358 ], [ 80.207404621274563, 12.97962742176693 ], [ 80.20746927981493, 12.979937592145307 ], [ 80.207466485774646, 12.980267729765465 ], [ 80.207097363331201, 12.980306753955585 ], [ 80.206809841230097, 12.980387543795675 ], [ 80.206803554639436, 12.981130353440552 ], [ 80.206678883968095, 12.981335941782612 ], [ 80.206391361866835, 12.981416731622415 ], [ 80.205201695683769, 12.981574572948654 ], [ 80.204871452508627, 12.981861449577442 ], [ 80.204703711508358, 12.982314391910728 ], [ 80.204778326750002, 12.983181501610424 ], [ 80.204529334662382, 12.983551411091547 ], [ 80.203995265258953, 12.983713239995016 ], [ 80.203543843962848, 12.983793032940685 ], [ 80.203419522546497, 12.983957354079921 ], [ 80.203374705942394, 12.984411044083712 ], [ 80.203532493174151, 12.985134217021832 ], [ 80.203774500160989, 12.985589651590713 ], [ 80.203724095476318, 12.986703616834772 ], [ 80.203633763757978, 12.987693531247595 ], [ 80.203630271207601, 12.988106203272656 ], [ 80.203792424127286, 12.988313536179463 ], [ 80.204325795020878, 12.988234241681118 ], [ 80.20465324415558, 12.988277502672036 ], [ 80.204897695927883, 12.988444066823467 ], [ 80.205056007042117, 12.989105338957815 ], [ 80.206528417715276, 12.994272960542688 ], [ 80.207080042500408, 12.996764799418562 ], [ 80.208399472294971, 12.996704026266004 ], [ 80.210037212536605, 12.996469923588268 ], [ 80.2103204381241, 12.996410630267038 ], [ 80.210401900677056, 12.996329771082708 ], [ 80.210322331472156, 12.996186916443076 ], [ 80.210304203427143, 12.995942742174266 ], [ 80.210506827074269, 12.995862619935687 ], [ 80.212186847695421, 12.995405049082388 ], [ 80.212429169883592, 12.995406522973761 ], [ 80.212529448971807, 12.995488487576793 ], [ 80.212729318658262, 12.995733767263959 ], [ 80.213112995456299, 12.995736100925305 ], [ 80.213882070278075, 12.995537392044307 ], [ 80.214488908484043, 12.995419051050458 ], [ 80.214652522080343, 12.995175982200243 ], [ 80.214593490636162, 12.994992575144103 ], [ 80.214493211547932, 12.99491061054125 ], [ 80.214454373619674, 12.994727326309397 ], [ 80.214799040366955, 12.994566713359108 ], [ 80.215672180973058, 12.994002541432931 ], [ 80.215176637698846, 12.992901239325741 ], [ 80.215198724562654, 12.99267764832595 ], [ 80.215543563432476, 12.992496697755437 ], [ 80.21619319838571, 12.99209387572502 ], [ 80.216215285249348, 12.991870284725222 ], [ 80.215598753003533, 12.990747908052121 ], [ 80.215309103704911, 12.989180068919374 ], [ 80.215473922159106, 12.98879463672665 ], [ 80.216063148687724, 12.988371108602989 ], [ 80.217462009192289, 12.987728779626513 ], [ 80.218433535538594, 12.987470286127101 ] ] ] } },
{ "type": "Feature", "properties": { "Zone_No": "XIII", "Ward_No": 178, "Zone_Name": "ADYAR", "AREA": 0.000123, "PERIMETER": 0.060513 }, "geometry": { "type": "Polygon", "coordinates": [ [ [ 80.222988905673759, 12.987197154752151 ], [ 80.22303430784099, 12.986076131452574 ], [ 80.223208501118336, 12.985611750324594 ], [ 80.223260254905213, 12.985244611977485 ], [ 80.223238005984683, 12.98499950789644 ], [ 80.222973158523402, 12.984679437616615 ], [ 80.222758613659749, 12.984163698291372 ], [ 80.222013751935265, 12.98308130525027 ], [ 80.221848887731284, 12.982443383723279 ], [ 80.221153292040839, 12.98128779970958 ], [ 80.221121854902307, 12.979254367830663 ], [ 80.221246367520152, 12.978912168904431 ], [ 80.221271037736045, 12.975997190772755 ], [ 80.220716191514569, 12.975454884735788 ], [ 80.220049271439464, 12.973785040751954 ], [ 80.219192543174373, 12.971550614149237 ], [ 80.217628513641031, 12.967738154324746 ], [ 80.216131153413755, 12.968393595970388 ], [ 80.214975826183505, 12.969335763367676 ], [ 80.212088031990845, 12.971629281057247 ], [ 80.211258058365217, 12.972862312660778 ], [ 80.211208002935592, 12.973935010702361 ], [ 80.211079839713847, 12.97455327106919 ], [ 80.210954470532528, 12.974841393815746 ], [ 80.210707923229947, 12.97492243287941 ], [ 80.210093301249188, 12.974918694525758 ], [ 80.209681806986666, 12.975122538302495 ], [ 80.209393237120523, 12.975327129749902 ], [ 80.209308493482766, 12.975656768922686 ], [ 80.209592872288525, 12.975947383905176 ], [ 80.209959549946717, 12.976197230132632 ], [ 80.209998079960215, 12.976486349773666 ], [ 80.209586236442874, 12.976731460752649 ], [ 80.209379266919086, 12.976977817850086 ], [ 80.209252849972529, 12.977389742204132 ], [ 80.209250055932216, 12.977719879824065 ], [ 80.210916960421059, 12.977967454188478 ], [ 80.216137700897477, 12.979003580519972 ], [ 80.21698710675922, 12.979229218793858 ], [ 80.218032332880682, 12.979309066864486 ], [ 80.218616062030307, 12.979312617316744 ], [ 80.218834338523209, 12.97938743558001 ], [ 80.218831850770357, 12.979681382954642 ], [ 80.218160436272555, 12.981416577329123 ], [ 80.217981474802215, 12.982444357591669 ], [ 80.218051397712458, 12.985678370454762 ], [ 80.21835763332372, 12.986856083114873 ], [ 80.218433535538594, 12.987470286127101 ], [ 80.218589059374736, 12.98818308543448 ], [ 80.218667251599115, 12.988488641037128 ], [ 80.218848476872623, 12.988550759316722 ], [ 80.21927340131495, 12.988451650524787 ], [ 80.219921142920086, 12.988272542318501 ], [ 80.220144132205519, 12.988172205283751 ], [ 80.220325357479012, 12.988234323563285 ], [ 80.220423054728911, 12.988621352471672 ], [ 80.220543010965244, 12.988764452760041 ], [ 80.22074477399957, 12.988786018623243 ], [ 80.22109081772706, 12.988462704710111 ], [ 80.221516602782359, 12.988261907816279 ], [ 80.222104968698218, 12.98794006779452 ], [ 80.222207829624793, 12.987716968091796 ], [ 80.22220937872774, 12.987533929508499 ], [ 80.222392841594484, 12.987331658723347 ], [ 80.222818282404518, 12.987171537070353 ], [ 80.222988905673759, 12.987197154752151 ] ] ] } },
{ "type": "Feature", "properties": { "Zone_No": "X", "Ward_No": 142, "Zone_Name": "KODAMBAKKAM", "AREA": 9.5e-05, "PERIMETER": 0.055125 }, "geometry": { "type": "Polygon", "coordinates": [ [ [ 80.224442317953134, 13.025319772928103 ], [ 80.225025087671966, 13.025292438835045 ], [ 80.226005631804838, 13.025360160279204 ], [ 80.227846699934517, 13.025186086064389 ], [ 80.228706962610289, 13.024975167525559 ], [ 80.22895353590944, 13.02482227372492 ], [ 80.228709575821071, 13.024666396322436 ], [ 80.227917162845614, 13.024105759803863 ], [ 80.226277814569443, 13.022181308688539 ], [ 80.224670953877649, 13.020040904206313 ], [ 80.224338154631923, 13.019513941934738 ], [ 80.224402868479388, 13.019112912321134 ], [ 80.224591522279042, 13.018558243006211 ], [ 80.225000794820602, 13.017294705250194 ], [ 80.224791935527335, 13.016614103277627 ], [ 80.22442743266059, 13.016210463012236 ], [ 80.223724904126854, 13.015897402881455 ], [ 80.223113305318819, 13.015708410657322 ], [ 80.219490133843323, 13.016334826120172 ], [ 80.219090791502708, 13.016425033304543 ], [ 80.219027384260599, 13.016671677316751 ], [ 80.219235459590834, 13.0174449106502 ], [ 80.219470273441516, 13.018681487263448 ], [ 80.219682007266584, 13.019022440912634 ], [ 80.219709791071594, 13.019362275711126 ], [ 80.219524795766816, 13.019484665341569 ], [ 80.219033739737171, 13.019543435980337 ], [ 80.217714124652758, 13.019689803151925 ], [ 80.214487159664984, 13.020596536873974 ], [ 80.213443730932141, 13.0207137052014 ], [ 80.212282895274001, 13.020212585222065 ], [ 80.2119464375333, 13.020117902634682 ], [ 80.211853155917581, 13.020271728810897 ], [ 80.21159952694957, 13.021258304859851 ], [ 80.211098205537851, 13.022713792196747 ], [ 80.212655761631154, 13.02282345342277 ], [ 80.214434431477287, 13.022834271937429 ], [ 80.215640816638, 13.02274208433262 ], [ 80.2163918105731, 13.02274665214992 ], [ 80.216603307700169, 13.02344461548793 ], [ 80.216558054302538, 13.024121112121007 ], [ 80.216655690123048, 13.024261041364662 ], [ 80.216654005593327, 13.024460081671888 ], [ 80.216553169166289, 13.024698329011819 ], [ 80.216486131334548, 13.025613553807824 ], [ 80.216364521191366, 13.025971105126507 ], [ 80.216472823549609, 13.027185972234507 ], [ 80.216629411459138, 13.027366070156726 ], [ 80.216805762366974, 13.027546288284716 ], [ 80.219770380563702, 13.027544415111839 ], [ 80.21983180544683, 13.024957131529796 ], [ 80.223051321185608, 13.025195669399789 ], [ 80.224442317953134, 13.025319772928103 ] ] ] } }
]
}
